OBJECT_NAME,OBJECT_ID,EPOCH,MEAN_MOTION,ECCENTRICITY,INCLINATION,RA_OF_ASC_NODE,ARG_OF_PERICENTER,MEAN_ANOMALY,EPHEMERIS_TYPE,CLASSIFICATION_TYPE,NORAD_CAT_ID,ELEMENT_SET_NO,REV_AT_EPOCH,BSTAR,MEAN_MOTION_DOT,MEAN_MOTION_DDOT
GAOFEN-5 01,2018-043A,2026-06-27T04:48:40.264128,14.60612227,.0002889,98.4575,149.9972,65.6693,294.4808,0,U,43461,999,43315,.83925E-4,.359E-5,0
BANGABANDHUSAT-1,2018-044A,2026-06-27T01:05:41.580096,1.00272346,.0002066,0.0164,53.4954,45.8280,311.3631,0,U,43463,999,2980,0,-.351E-5,0
GRACE-FO 1,2018-047A,2026-06-27T04:17:40.549056,15.38325772,.0013741,88.9914,196.5799,76.2572,284.0212,0,U,43476,999,45133,.10293E-3,.393E-4,0
GRACE-FO 2,2018-047B,2026-06-27T04:18:03.553056,15.38323395,.0013752,88.9913,196.5798,76.3161,283.9624,0,U,43477,999,45133,.10651E-3,.4065E-4,0
IRIDIUM 161,2018-047C,2026-06-27T05:19:37.617024,14.43277549,.0002517,86.4479,84.2758,81.6979,278.4507,0,U,43478,999,42658,.8384E-4,.302E-5,0
IRIDIUM 152,2018-047D,2026-06-27T05:14:18.178080,14.34218270,.0002281,86.3956,84.1385,82.2112,277.9342,0,U,43479,999,42392,.63707E-4,.198E-5,0
IRIDIUM 147,2018-047E,2026-06-27T03:42:58.252032,14.34217715,.0002164,86.3957,84.1703,87.3473,272.7971,0,U,43480,999,42391,.20539E-5,.26E-6,0
IRIDIUM 110,2018-047F,2026-06-27T03:52:06.306240,14.34217415,.0002349,86.3956,84.2597,78.2051,281.9408,0,U,43481,999,42390,-.70573E-5,0,0
IRIDIUM 162,2018-047G,2026-06-27T05:10:33.455136,14.43279355,.0002283,86.4481,84.1693,83.2922,276.8539,0,U,43482,999,42657,.87736E-4,.315E-5,0
GAOFEN-6,2018-048A,2026-06-27T04:02:37.017600,14.76373629,.0011727,98.0894,240.8291,133.5954,226.6230,0,U,43484,999,43486,.50543E-4,.299E-5,0
LUOJIA-1 01,2018-048B,2026-06-27T04:45:54.407232,14.87320230,.0010486,97.8109,256.2260,89.0641,271.1777,0,U,43485,999,43570,.18411E-3,.1609E-4,0
SES-12,2018-049A,2026-06-27T02:41:32.123040,1.00270359,.0000396,0.0122,7.5043,257.5459,145.5564,0,U,43488,999,2951,0,-.258E-5,0
FENGYUN 2H,2018-050A,2026-06-27T02:37:02.554176,1.00269779,.00017,3.0571,78.9644,123.0661,191.7900,0,U,43491,999,2953,0,-.12E-5,0
COSMOS 2527 [GLONASS-M],2018-053A,2026-06-26T00:00:57.081024,2.13102108,.00068737,65.5828,73.6132,236.8993,123.0709,0,U,43508,999,6246,0,-.62E-6,0
PAKTES 1A,2018-056A,2026-06-27T03:36:19.840896,14.99134221,.0021167,98.1279,335.0619,75.3613,284.9953,0,U,43529,999,43341,.51652E-4,.565E-5,0
PRSS-1,2018-056B,2026-06-27T04:22:49.194912,14.82002325,.00015,97.7821,245.7755,76.0142,284.1238,0,U,43530,999,42991,.7245E-4,.524E-5,0
BEIDOU-2 IGSO-7,2018-057A,2026-06-26T12:08:29.940576,1.00249004,.0104768,55.1970,162.9757,237.9790,164.9478,0,U,43539,999,2922,0,-.28E-6,0
TELSTAR 19V,2018-059A,2026-06-27T04:17:38.757120,1.00270392,.0003032,0.0374,148.0868,328.2516,160.3573,0,U,43562,999,2924,0,-.268E-5,0
GSAT0221 (GALILEO 25),2018-060A,2026-06-26T10:48:27.072576,1.70476265,.000252,57.1663,341.5303,298.2786,61.6906,0,U,43564,999,4932,0,-.95E-6,0
GSAT0222 (GALILEO 26),2018-060B,2026-06-25T11:55:24.810816,1.70476000,.0002086,57.1695,341.5596,244.5899,115.3843,0,U,43565,999,4935,0,-.97E-6,0
GSAT0219 (GALILEO 23),2018-060C,2026-06-26T07:18:09.641664,1.70476218,.0001792,57.1694,341.5394,314.3403,45.6398,0,U,43566,999,4934,0,-.96E-6,0
GSAT0220 (GALILEO 24),2018-060D,2026-06-26T12:36:23.835168,1.70476256,.00019251,57.1682,341.5331,306.9485,53.0284,0,U,43567,999,4933,0,-.95E-6,0
IRIDIUM 160,2018-061A,2026-06-27T04:14:34.478016,14.34217890,.0002252,86.3955,52.6201,85.5215,274.6238,0,U,43569,999,41480,.11392E-4,.52E-6,0
IRIDIUM 166,2018-061B,2026-06-27T03:10:38.434656,14.34217652,.0002054,86.3947,52.5887,88.3142,271.8289,0,U,43570,999,41482,-.24052E-6,.19E-6,0
IRIDIUM 158,2018-061C,2026-06-27T04:05:26.458368,14.34217550,.0002151,86.3951,52.5830,83.9722,276.1719,0,U,43571,999,41479,.17512E-4,.69E-6,0
IRIDIUM 165,2018-061D,2026-06-27T04:41:58.441056,14.34217578,.0002141,86.3954,52.6190,89.4433,270.7008,0,U,43572,999,41482,.21199E-4,.79E-6,0
IRIDIUM 155,2018-061E,2026-06-27T03:47:10.433760,14.34218056,.0002056,86.3950,52.5034,84.8116,275.3315,0,U,43573,999,41478,.20782E-4,.78E-6,0
IRIDIUM 154,2018-061F,2026-06-27T05:00:14.450976,14.34217966,.0002176,86.3954,52.6164,89.1391,271.0054,0,U,43574,999,41484,.25182E-4,.9E-6,0
IRIDIUM 163,2018-061G,2026-06-27T04:32:50.491392,14.34217909,.0002203,86.3952,52.5393,83.5501,276.5945,0,U,43575,999,41481,.31458E-4,.108E-5,0
IRIDIUM 156,2018-061H,2026-06-27T03:56:18.889728,14.34218984,.0002008,86.3953,52.5572,85.7801,274.3624,0,U,43576,999,41480,.76711E-4,.235E-5,0
IRIDIUM 164,2018-061J,2026-06-27T03:28:54.467040,14.34218092,.0002226,86.3954,52.6057,90.1368,270.0083,0,U,43577,999,41484,.22884E-4,.84E-6,0
IRIDIUM 159,2018-061K,2026-06-27T04:23:42.496800,14.34217694,.0002223,86.3951,52.5263,83.9433,276.2016,0,U,43578,999,41481,.82091E-5,.43E-6,0
BEIDOU-3 M5,2018-062A,2026-06-26T05:38:53.016576,1.86228770,.0005829,54.0859,181.9962,291.5726,68.3953,0,U,43581,999,5380,0,.97E-6,0
BEIDOU-3 M6,2018-062B,2026-06-26T02:22:20.571744,1.86228182,.00050576,54.0857,181.9897,9.2241,350.8155,0,U,43582,999,5380,0,.98E-6,0
GAOFEN-11 01,2018-063A,2026-06-27T05:01:37.008768,15.55567075,.0002063,97.1294,245.0618,304.7483,55.3578,0,U,43585,999,44190,.20345E-3,.13833E-3,0
TELKOM 4 (MERAH PUTIH),2018-064A,2026-06-27T01:02:34.379808,1.00272463,.000167,0.0170,66.7361,51.2933,280.7699,0,U,43587,999,2897,0,-.332E-5,0
BEIDOU-3 M12,2018-067A,2026-06-26T00:53:39.683040,1.86227758,.0007828,54.1810,180.7397,29.5974,330.4748,0,U,43602,999,5328,0,.98E-6,0
BEIDOU-3 M11,2018-067B,2026-06-26T04:08:11.311296,1.86227233,.0004573,54.1781,180.6987,12.4630,347.5758,0,U,43603,999,5331,0,.97E-6,0
HAIYANG-1C,2018-068A,2026-06-27T03:38:38.918976,14.34181975,.0012049,98.5193,250.3158,67.9224,292.3240,0,U,43609,999,40851,.74287E-4,.165E-5,0
TELSTAR 18V,2018-069A,2026-06-26T23:28:29.413344,1.00273183,.0002244,0.0171,335.0364,116.1150,314.0507,0,U,43611,999,2873,0,-.282E-5,0
ICESAT-2,2018-070A,2026-06-27T04:09:21.613248,15.28200259,.0006259,92.0085,293.6767,96.6980,263.4982,0,U,43613,999,43398,.36679E-3,.10083E-3,0
SSTL S1-4,2018-071A,2026-06-27T04:29:14.892288,14.96176824,.0001909,97.5020,49.3847,112.4887,247.6537,0,U,43618,999,42443,.13459E-3,.1462E-4,0
NOVASAR 1,2018-071B,2026-06-27T05:15:55.179360,14.96254936,.0002118,97.5071,50.1288,68.8153,291.3295,0,U,43619,999,42443,.39405E-5,-.1E-6,0
BEIDOU-3 M13,2018-072A,2026-06-26T03:03:04.997088,1.86231341,.00070502,56.6328,62.3641,330.4803,29.5224,0,U,43622,999,5282,0,-.87E-6,0
BEIDOU-3 M14,2018-072B,2026-06-25T23:49:19.291296,1.86231224,.0006093,56.6345,62.3631,4.7501,355.2976,0,U,43623,999,5281,0,-.88E-6,0
AZERSPACE 2 (IS-38),2018-074A,2026-06-27T04:09:55.227168,1.00270667,.0001709,0.0274,17.8346,80.2276,284.8179,0,U,43632,999,2854,0,0,0
HORIZONS-3E,2018-074B,2026-06-26T21:54:40.856832,1.00268864,.0000627,0.0051,291.0865,17.8683,103.7557,0,U,43633,999,2843,0,-.19E-6,0
CENTISPACE-1 S1,2018-075A,2026-06-27T04:24:03.078144,14.60003567,.0010082,97.8722,201.4509,90.0378,270.1979,0,U,43636,999,41201,.12286E-3,.546E-5,0
SAOCOM 1A,2018-076A,2026-06-27T04:40:59.143008,14.82153639,.0001543,97.8884,4.7982,79.6084,280.5303,0,U,43641,999,41758,.14035E-4,.6E-6,0
YAOGAN-32 A,2018-077A,2026-06-27T04:13:35.262048,14.63186507,.0001808,98.1474,206.6004,96.8301,263.3107,0,U,43642,999,41130,.12692E-3,.606E-5,0
YAOGAN-32 B,2018-077B,2026-06-27T04:13:21.880416,14.63185141,.0005726,98.1478,206.5561,173.2959,186.8321,0,U,43643,999,41129,.12386E-3,.59E-5,0
BEIDOU-3 M16,2018-078A,2026-06-22T22:13:33.101184,1.86232370,.00070757,54.0842,299.7848,40.9359,319.1123,0,U,43647,999,5226,0,-.107E-5,0
BEIDOU-3 M15,2018-078B,2026-06-26T06:38:56.414976,1.86232565,.0003991,54.0766,299.6676,57.9517,302.0826,0,U,43648,999,5234,0,-.1E-5,0
AEHF-4 (USA 288),2018-079A,2026-06-27T04:25:38.698752,1.00269958,.0060083,1.4348,4.8249,355.9076,273.4428,0,U,43651,999,2839,0,-.264E-5,0
HAIYANG-2B,2018-081A,2026-06-27T05:54:04.862304,13.79308005,.0000092,99.3284,186.8502,158.3327,201.7829,0,U,43655,999,38631,.1648E-3,.125E-5,0
COSMOS 2528,2018-082A,2026-06-27T00:50:01.870368,13.96710123,.000805,67.1493,53.8235,275.6014,84.4152,0,U,43657,999,39132,.24875E-4,-.41E-6,0
CFOSAT,2018-083A,2026-06-27T04:33:29.019744,15.16433451,.0002346,97.3601,182.4256,84.3432,275.8069,0,U,43662,999,42395,.1678E-3,.3198E-4,0
GOSAT 2 (IBUKI 1),2018-084B,2026-06-26T20:48:55.253088,14.84238086,.00015558,97.8817,289.2496,105.7665,254.3721,0,U,43672,999,41499,-.98275437E-4,-.876E-5,0
KHALIFASAT,2018-084F,2026-06-27T04:38:27.142944,15.01331978,.0007453,98.0783,0.9933,73.6021,286.6021,0,U,43676,999,41727,.21113E-3,.2654E-4,0
TEN-KOH,2018-084G,2026-06-27T02:38:40.604352,15.02973522,.0011194,98.0752,10.8926,86.0204,274.2299,0,U,43677,999,41765,.12584E-3,.1627E-4,0
DIWATA-2B,2018-084H,2026-06-27T04:08:59.538912,15.00494087,.0013011,98.1202,14.8168,138.8856,221.3349,0,U,43678,999,41771,.18063E-3,.2213E-4,0
STARS-AO,2018-084J,2026-06-27T03:57:30.352032,15.17159123,.0003422,98.0495,32.7515,116.5349,243.6234,0,U,43679,999,41898,.33214E-3,.652E-4,0
AUTCUBE 2,2018-084K,2026-06-26T20:07:05.365056,15.10152885,.00092836,98.0705,24.5246,20.1618,339.9974,0,U,43681,999,41838,.24697026E-3,.3962E-4,0
BEIDOU-3 G1,2018-085A,2026-06-26T18:26:43.068192,1.00271021,.0008533,2.8930,97.1153,351.5898,262.7888,0,U,43683,999,2815,0,-.1E-5,0
COSMOS 2529 [GLONASS-M],2018-086A,2026-06-26T02:19:47.979840,2.13102017,.0012114,64.2953,192.2935,256.4695,103.4491,0,U,43687,999,5947,0,.106E-5,0
METOP-C,2018-087A,2026-06-27T03:12:08.959392,14.21514604,.0002049,98.6640,237.5551,116.9737,243.1650,0,U,43689,999,39624,.62373E-4,.93E-6,0
GSAT-29,2018-089A,2026-06-27T04:12:47.450880,1.00270755,.0003793,0.0835,262.7319,170.3419,320.4383,0,U,43698,999,2788,0,.97E-6,0
ES'HAIL 2,2018-090A,2026-06-27T04:04:25.752864,1.00270707,.0002144,0.0097,15.5646,113.3726,233.2389,0,U,43700,999,2777,0,.156E-5,0
BEIDOU-3 M17,2018-093A,2026-06-26T12:03:21.339648,1.86228594,.0010136,54.1697,181.9800,292.4713,110.1482,0,U,43706,999,5171,0,.95E-6,0
